start=new Date('2022-10-16T00:00:00.000Z').valueOf();
sats=[{"GP_ID":"215207932","MEAN_MOTION":"15.08849852","MEAN_ELEMENT_THEORY":"SGP4","INCLINATION":"53.2179","ELEMENT_SET_NO":"999","OBJECT_ID":"2022-025T","MEAN_MOTION_DDOT":"0.0000000000000","BSTAR":"0.00009065600000","NORAD_CAT_ID":"51973","COUNTRY_CODE":"US","TIME_SYSTEM":"UTC","PERIAPSIS":"538.597","TLE_LINE1":"1 51973U 22025T   22288.02704581  .00001155  00000-0  90656-4 0  9997","OBJECT_NAME":"STARLINK-3679","TLE_LINE2":"2 51973  53.2179 203.1510 0001617  58.9922 301.1229 15.08849852 33752","REF_FRAME":"TEME","DECAY_DATE":null,"REV_AT_EPOCH":"3375","RCS_SIZE":"LARGE","CENTER_NAME":"EARTH","LAUNCH_DATE":"2022-03-09","OBJECT_TYPE":"PAYLOAD","FILE":"3614916","MEAN_ANOMALY":"301.1229","RA_OF_ASC_NODE":"203.1510","SEMIMAJOR_AXIS":"6917.850","EPHEMERIS_TYPE":"0","APOAPSIS":"540.834","CLASSIFICATION_TYPE":"U","PERIOD":"95.437","ECCENTRICITY":"0.00016170","EPOCH":"2022-10-15T00:38:56.757984","ARG_OF_PERICENTER":"58.9922","MEAN_MOTION_DOT":"0.00001155","SITE":"AFETR"},{"TIME_SYSTEM":"UTC","PERIAPSIS":"538.572","COUNTRY_CODE":"US","DECAY_DATE":null,"REV_AT_EPOCH":"3386","TLE_LINE2":"2 51974  53.2167 199.6329 0001591  58.0956 302.0191 15.08863651 33869","REF_FRAME":"TEME","OBJECT_NAME":"STARLINK-3672","TLE_LINE1":"1 51974U 22025U   22288.81087425  .00001765  00000-0  12886-3 0  9991","CENTER_NAME":"EARTH","RCS_SIZE":"LARGE","OBJECT_TYPE":"PAYLOAD","LAUNCH_DATE":"2022-03-09","MEAN_MOTION":"15.08863651","GP_ID":"215249632","INCLINATION":"53.2167","MEAN_ELEMENT_THEORY":"SGP4","OBJECT_ID":"2022-025U","ELEMENT_SET_NO":"999","NORAD_CAT_ID":"51974","MEAN_MOTION_DDOT":"0.0000000000000","BSTAR":"0.00012886000000","EPOCH":"2022-10-15T19:27:39.535200","MEAN_MOTION_DOT":"0.00001765","ARG_OF_PERICENTER":"58.0956","SITE":"AFETR","RA_OF_ASC_NODE":"199.6329","MEAN_ANOMALY":"302.0191","FILE":"3615679","EPHEMERIS_TYPE":"0","SEMIMAJOR_AXIS":"6917.808","ECCENTRICITY":"0.00015910","PERIOD":"95.436","CLASSIFICATION_TYPE":"U","APOAPSIS":"540.774"},{"EPOCH":"2022-10-15T11:32:08.421792","MEAN_MOTION_DOT":"0.00001329","ARG_OF_PERICENTER":"60.0794","SITE":"AFETR","FILE":"3614916","RA_OF_ASC_NODE":"201.1330","MEAN_ANOMALY":"300.0381","EPHEMERIS_TYPE":"0","SEMIMAJOR_AXIS":"6917.853","APOAPSIS":"540.993","PERIOD":"95.437","CLASSIFICATION_TYPE":"U","ECCENTRICITY":"0.00018420","COUNTRY_CODE":"US","PERIAPSIS":"538.444","TIME_SYSTEM":"UTC","TLE_LINE1":"1 51975U 22025V   22288.48065303  .00001329  00000-0  10158-3 0  9992","OBJECT_NAME":"STARLINK-3674","REV_AT_EPOCH":"3382","DECAY_DATE":null,"REF_FRAME":"TEME","TLE_LINE2":"2 51975  53.2206 201.1330 0001842  60.0794 300.0381 15.08848830 33824","RCS_SIZE":"LARGE","CENTER_NAME":"EARTH","LAUNCH_DATE":"2022-03-09","OBJECT_TYPE":"PAYLOAD","MEAN_MOTION":"15.08848830","GP_ID":"215206947","MEAN_ELEMENT_THEORY":"SGP4","INCLINATION":"53.2206","ELEMENT_SET_NO":"999","OBJECT_ID":"2022-025V","NORAD_CAT_ID":"51975","BSTAR":"0.00010158000000","MEAN_MOTION_DDOT":"0.0000000000000"},{"OBJECT_ID":"2022-025W","ELEMENT_SET_NO":"999","MEAN_MOTION_DDOT":"0.0000000000000","BSTAR":"0.00067148000000","NORAD_CAT_ID":"51976","GP_ID":"215248630","MEAN_MOTION":"15.08849993","INCLINATION":"53.2161","MEAN_ELEMENT_THEORY":"SGP4","RCS_SIZE":"LARGE","CENTER_NAME":"EARTH","OBJECT_TYPE":"PAYLOAD","LAUNCH_DATE":"2022-03-09","TIME_SYSTEM":"UTC","PERIAPSIS":"538.598","COUNTRY_CODE":"US","REF_FRAME":"TEME","TLE_LINE2":"2 51976  53.2161 209.6579 0001615  55.5788 304.5356 15.08849993 33735","REV_AT_EPOCH":"3373","DECAY_DATE":null,"OBJECT_NAME":"STARLINK-3663","TLE_LINE1":"1 51976U 22025W   22288.80997648  .00010418  00000-0  67148-3 0  9995","CLASSIFICATION_TYPE":"U","PERIOD":"95.437","ECCENTRICITY":"0.00016150","APOAPSIS":"540.832","MEAN_ANOMALY":"304.5356","RA_OF_ASC_NODE":"209.6579","FILE":"3615679","SEMIMAJOR_AXIS":"6917.850","EPHEMERIS_TYPE":"0","ARG_OF_PERICENTER":"55.5788","MEAN_MOTION_DOT":"0.00010418","SITE":"AFETR","EPOCH":"2022-10-15T19:26:21.967872"},{"TIME_SYSTEM":"UTC","PERIAPSIS":"538.584","COUNTRY_CODE":"US","REF_FRAME":"TEME","TLE_LINE2":"2 51977  53.2186 193.2336 0001610  68.8425 291.2739 15.08855442 33881","REV_AT_EPOCH":"3388","DECAY_DATE":null,"TLE_LINE1":"1 51977U 22025X   22288.01325504  .00000202  00000-0  30776-4 0  9993","OBJECT_NAME":"STARLINK-3660","RCS_SIZE":"LARGE","CENTER_NAME":"EARTH","OBJECT_TYPE":"PAYLOAD","LAUNCH_DATE":"2022-03-09","GP_ID":"215208432","MEAN_MOTION":"15.08855442","INCLINATION":"53.2186","MEAN_ELEMENT_THEORY":"SGP4","OBJECT_ID":"2022-025X","ELEMENT_SET_NO":"999","BSTAR":"0.00003077600000","MEAN_MOTION_DDOT":"0.0000000000000","NORAD_CAT_ID":"51977","EPOCH":"2022-10-15T00:19:05.235456","ARG_OF_PERICENTER":"68.8425","MEAN_MOTION_DOT":"0.00000202","SITE":"AFETR","MEAN_ANOMALY":"291.2739","RA_OF_ASC_NODE":"193.2336","FILE":"3614916","SEMIMAJOR_AXIS":"6917.833","EPHEMERIS_TYPE":"0","CLASSIFICATION_TYPE":"U","PERIOD":"95.437","ECCENTRICITY":"0.00016100","APOAPSIS":"540.812"},{"SITE":"AFETR","MEAN_MOTION_DOT":"-0.00000657","ARG_OF_PERICENTER":"64.2434","EPOCH":"2022-10-15T19:10:28.158528","APOAPSIS":"540.886","PERIOD":"95.438","ECCENTRICITY":"0.00016270","CLASSIFICATION_TYPE":"U","EPHEMERIS_TYPE":"0","SEMIMAJOR_AXIS":"6917.895","FILE":"3615679","RA_OF_ASC_NODE":"209.6892","MEAN_ANOMALY":"295.8726","LAUNCH_DATE":"2022-03-09","OBJECT_TYPE":"PAYLOAD","CENTER_NAME":"EARTH","RCS_SIZE":"LARGE","OBJECT_NAME":"STARLINK-3666","TLE_LINE1":"1 51978U 22025Y   22288.79893702 -.00000657  00000-0 -23215-4 0  9995","REV_AT_EPOCH":"3372","DECAY_DATE":null,"REF_FRAME":"TEME","TLE_LINE2":"2 51978  53.2166 209.6892 0001627  64.2434 295.8726 15.08835116 33722","COUNTRY_CODE":"US","TIME_SYSTEM":"UTC","PERIAPSIS":"538.635","NORAD_CAT_ID":"51978","MEAN_MOTION_DDOT":"0.0000000000000","BSTAR":"-0.00002321500000","ELEMENT_SET_NO":"999","OBJECT_ID":"2022-025Y","MEAN_ELEMENT_THEORY":"SGP4","INCLINATION":"53.2166","MEAN_MOTION":"15.08835116","GP_ID":"215249132"},{"APOAPSIS":"540.795","PERIOD":"95.437","CLASSIFICATION_TYPE":"U","ECCENTRICITY":"0.00015480","FILE":"3615331","MEAN_ANOMALY":"299.3283","RA_OF_ASC_NODE":"209.6411","SEMIMAJOR_AXIS":"6917.859","EPHEMERIS_TYPE":"0","ARG_OF_PERICENTER":"60.7864","MEAN_MOTION_DOT":"0.00001026","SITE":"AFETR","EPOCH":"2022-10-15T19:31:39.483552","ELEMENT_SET_NO":"999","OBJECT_ID":"2022-025Z","MEAN_MOTION_DDOT":"0.0000000000000","BSTAR":"0.00008252800000","NORAD_CAT_ID":"51979","GP_ID":"215218558","MEAN_MOTION":"15.08846964","MEAN_ELEMENT_THEORY":"SGP4","INCLINATION":"53.2177","RCS_SIZE":"LARGE","CENTER_NAME":"EARTH","LAUNCH_DATE":"2022-03-09","OBJECT_TYPE":"PAYLOAD","COUNTRY_CODE":"US","PERIAPSIS":"538.653","TIME_SYSTEM":"UTC","TLE_LINE1":"1 51979U 22025Z   22288.81365143  .00001026  00000-0  82528-4 0  9993","OBJECT_NAME":"STARLINK-3656","TLE_LINE2":"2 51979  53.2177 209.6411 0001548  60.7864 299.3283 15.08846964 34846","REF_FRAME":"TEME","REV_AT_EPOCH":"3484","DECAY_DATE":null},{"EPOCH":"2022-10-15T18:59:51.476928","ARG_OF_PERICENTER":"73.1314","MEAN_MOTION_DOT":"0.00008083","SITE":"AFETR","MEAN_ANOMALY":"286.9845","RA_OF_ASC_NODE":"209.7196","FILE":"3615679","SEMIMAJOR_AXIS":"6917.830","EPHEMERIS_TYPE":"0","PERIOD":"95.437","CLASSIFICATION_TYPE":"U","ECCENTRICITY":"0.00015290","APOAPSIS":"540.753","TIME_SYSTEM":"UTC","PERIAPSIS":"538.637","COUNTRY_CODE":"US","TLE_LINE2":"2 51980  53.2158 209.7196 0001529  73.1314 286.9845 15.08856478 33728","REF_FRAME":"TEME","REV_AT_EPOCH":"3372","DECAY_DATE":null,"OBJECT_NAME":"STARLINK-3649","TLE_LINE1":"1 51980U 22025AA  22288.79156802  .00008083  00000-0  52512-3 0  9991","RCS_SIZE":"LARGE","CENTER_NAME":"EARTH","OBJECT_TYPE":"PAYLOAD","LAUNCH_DATE":"2022-03-09","GP_ID":"215248130","MEAN_MOTION":"15.08856478","INCLINATION":"53.2158","MEAN_ELEMENT_THEORY":"SGP4","OBJECT_ID":"2022-025AA","ELEMENT_SET_NO":"999","MEAN_MOTION_DDOT":"0.0000000000000","BSTAR":"0.00052512000000","NORAD_CAT_ID":"51980"},{"PERIOD":"95.436","CLASSIFICATION_TYPE":"U","ECCENTRICITY":"0.00018140","APOAPSIS":"540.945","SEMIMAJOR_AXIS":"6917.825","EPHEMERIS_TYPE":"0","MEAN_ANOMALY":"316.6347","RA_OF_ASC_NODE":"212.0376","FILE":"3614973","SITE":"AFETR","ARG_OF_PERICENTER":"43.4788","MEAN_MOTION_DOT":"0.00008200","EPOCH":"2022-10-15T06:37:57.903168","MEAN_MOTION_DDOT":"0.0000000000000","BSTAR":"0.00053244000000","NORAD_CAT_ID":"51981","OBJECT_ID":"2022-025AB","ELEMENT_SET_NO":"999","INCLINATION":"53.2152","MEAN_ELEMENT_THEORY":"SGP4","GP_ID":"215210521","MEAN_MOTION":"15.08858172","OBJECT_TYPE":"PAYLOAD","LAUNCH_DATE":"2022-03-09","CENTER_NAME":"EARTH","RCS_SIZE":"LARGE","REF_FRAME":"TEME","TLE_LINE2":"2 51981  53.2152 212.0376 0001814  43.4788 316.6347 15.08858172 34746","DECAY_DATE":null,"REV_AT_EPOCH":"3474","OBJECT_NAME":"STARLINK-3635","TLE_LINE1":"1 51981U 22025AB  22288.27636462  .00008200  00000-0  53244-3 0  9994","PERIAPSIS":"538.435","TIME_SYSTEM":"UTC","COUNTRY_CODE":"US"},{"APOAPSIS":"540.995","PERIOD":"95.436","CLASSIFICATION_TYPE":"U","ECCENTRICITY":"0.00018840","FILE":"3614973","RA_OF_ASC_NODE":"209.7387","MEAN_ANOMALY":"311.6361","EPHEMERIS_TYPE":"0","SEMIMAJOR_AXIS":"6917.826","MEAN_MOTION_DOT":"0.00003316","ARG_OF_PERICENTER":"48.4793","SITE":"AFETR","EPOCH":"2022-10-15T18:54:33.397056","ELEMENT_SET_NO":"999","OBJECT_ID":"2022-025AC","NORAD_CAT_ID":"51982","MEAN_MOTION_DDOT":"0.0000000000000","BSTAR":"0.00022626000000","MEAN_MOTION":"15.08857731","GP_ID":"215210127","MEAN_ELEMENT_THEORY":"SGP4","INCLINATION":"53.2163","RCS_SIZE":"LARGE","CENTER_NAME":"EARTH","LAUNCH_DATE":"2022-03-09","OBJECT_TYPE":"PAYLOAD","COUNTRY_CODE":"US","PERIAPSIS":"538.388","TIME_SYSTEM":"UTC","TLE_LINE1":"1 51982U 22025AC  22288.78788654  .00003316  00000-0  22626-3 0  9995","OBJECT_NAME":"STARLINK-3650","DECAY_DATE":null,"REV_AT_EPOCH":"3482","REF_FRAME":"TEME","TLE_LINE2":"2 51982  53.2163 209.7387 0001884  48.4793 311.6361 15.08857731 34822"}];
